OBJECT_NAME,OBJECT_ID,EPOCH,MEAN_MOTION,ECCENTRICITY,INCLINATION,RA_OF_ASC_NODE,ARG_OF_PERICENTER,MEAN_ANOMALY,EPHEMERIS_TYPE,CLASSIFICATION_TYPE,NORAD_CAT_ID,ELEMENT_SET_NO,REV_AT_EPOCH,BSTAR,MEAN_MOTION_DOT,MEAN_MOTION_DDOT
GAOFEN-11 01,2018-063A,2026-06-19T07:06:58.680000,15.55338675,.00027443,97.1288,237.1703,348.0389,12.0801,0,U,43585,999,44067,.17248956E-3,.11613E-3,0
ICESAT-2,2018-070A,2026-06-19T07:34:47.466624,15.28314560,.00060921,92.0083,291.5541,102.3078,257.8854,0,U,43613,999,43278,.28016829E-3,.7728E-4,0
HYSIS,2018-096A,2026-06-19T07:25:20.725824,14.78619131,.00017714,97.9836,237.0410,97.5890,262.5522,0,U,43719,999,40773,.27433246E-4,.149E-5,0
KAZSTSAT,2018-099AB,2026-06-19T02:22:27.789600,14.99871564,.00085762,97.4271,201.9402,64.7111,295.5001,0,U,43783,999,41159,.11689863E-3,.1394E-4,0
SAUDISAT 5A,2018-102A,2026-06-19T07:49:11.330112,15.28066671,.00111401,97.3063,231.8657,122.5266,237.7052,0,U,43831,999,41600,.16805913E-3,.4534E-4,0
SAUDISAT 5B,2018-102C,2026-06-19T08:15:48.481632,15.28322543,.00118117,97.3173,234.9574,124.6455,235.5900,0,U,43833,999,41612,.15880434E-3,.4315E-4,0
GAOFEN-10R,2019-066A,2026-06-19T07:30:26.993952,14.83064783,.00067888,98.0503,123.9076,121.8921,238.2954,0,U,44622,999,36269,.11823232E-3,.908E-5,0
CARTOSAT-3,2019-081A,2026-06-19T07:56:20.790816,15.19289241,.00134145,97.4297,232.1641,141.5605,218.6588,0,U,44804,999,36379,.40305291E-4,.784E-5,0
GAOFEN-12 01,2019-082A,2026-06-19T07:26:34.086336,14.80460059,.00022152,97.8100,176.6336,68.0474,292.0973,0,U,44819,999,35440,.45103987E-4,.294E-5,0
CSG-1,2019-092A,2026-06-19T06:42:02.651040,14.82154645,.00014597,97.8888,353.8513,89.5121,270.6260,0,U,44873,999,35178,.43850249E-4,.297E-5,0
NEMO-HD,2020-061F,2026-06-19T07:58:40.045152,15.44631141,.00021769,97.1915,232.2638,79.4389,280.7106,0,U,46277,999,32231,.19547792E-3,.9016E-4,0
SENTINEL-6A,2020-086A,2026-06-19T06:31:07.078080,12.80929970,.00079281,66.0397,130.7229,270.2198,89.7908,0,U,46984,999,26059,.29054658E-4,-.54E-6,0
CAS500-1,2021-022A,2026-06-19T07:13:35.268960,15.20152967,.0003313,97.3895,65.5117,289.7267,70.3611,0,U,47932,999,29108,.2350552E-3,.5018E-4,0
GAOFEN-12 02,2021-026A,2026-06-19T06:05:28.974912,14.80297469,.0003827,97.9921,168.4260,213.3791,146.7180,0,U,48079,999,28206,.42044401E-4,.267E-5,0
PLEIADES NEO 3,2021-034A,2026-06-19T06:41:55.911840,14.81675145,.00013328,97.8930,245.0157,89.0632,271.0733,0,U,48268,999,27796,.37222635E-4,.241E-5,0
PLEIADES NEO 4,2021-073E,2026-06-19T05:53:16.956960,14.81681588,.00013858,97.8934,244.9787,89.1880,270.9492,0,U,49070,999,26167,.15653675E-3,.118E-4,0
LANDSAT 9,2021-088A,2026-06-19T04:30:39.500352,14.57098314,.00013208,98.2280,240.3412,85.7063,274.4286,0,U,49260,999,25129,.66628768E-4,.255E-5,0
CSG-2,2022-008A,2026-06-19T05:53:24.342432,14.82154934,.000145,97.8884,353.8125,87.3415,272.7964,0,U,51444,999,23689,-.39449262E-4,-.366E-5,0
GAOFEN-12 03,2022-069A,2026-06-19T06:49:05.514240,14.80036319,.00021249,97.8275,58.1015,100.2635,259.8817,0,U,52912,999,21492,.42023234E-4,.267E-5,0
SWOT,2022-173A,2026-06-19T06:35:41.937216,14.00169853,.00002698,77.6106,32.4920,89.3489,270.7694,0,U,54754,999,17944,.29273279E-4,.41E-6,0
GAOFEN-12 04,2023-123A,2026-06-19T07:12:42.451776,14.80232258,.00017772,97.9121,88.2880,82.2872,277.8542,0,U,57654,999,15294,.10980021E-3,.783E-5,0
PARS 1,2024-039Q,2026-06-19T06:09:30.486240,15.45760222,.00115439,97.4827,151.2415,105.6270,254.6254,0,U,59065,999,12896,.19421391E-3,.9326E-4,0
RESURS-P 4,2024-061A,2026-06-19T06:54:25.293600,15.32141386,.00023378,97.2753,118.1499,124.7400,235.4063,0,U,59371,999,12408,.83705718E-4,.2521E-4,0
LEGION 1,2024-081A,2026-06-19T06:32:02.412960,15.16679012,.00093152,97.5016,248.1071,10.6357,349.5072,0,U,59625,999,11785,.14354837E-3,.2745E-4,0
LEGION 2,2024-081B,2026-06-19T05:40:14.801952,15.16657276,.00105821,97.5016,248.1689,336.2019,23.8723,0,U,59626,999,11785,.16295339E-3,.3125E-4,0
ALOS-4 (DAICHI-4),2024-123A,2026-06-19T06:07:24.094272,14.79471668,.00016247,97.9247,267.4000,97.0738,263.0658,0,U,60182,999,10618,.15424764E-3,.1101E-4,0
LEGION 3,2024-146A,2026-06-19T01:00:13.692096,15.16048922,.00078615,45.0026,20.6083,180.8869,179.1997,0,U,60452,999,10230,.17902912E-3,.324E-4,0
LEGION 4,2024-146B,2026-06-19T05:49:21.383040,15.16045510,.00135922,45.0014,111.4417,319.3290,40.6573,0,U,60453,999,10118,.20123368E-3,.3679E-4,0
SENTINEL-2C,2024-157A,2026-06-19T04:48:44.668800,14.30818330,.00009902,98.5692,244.9541,82.8558,277.2737,0,U,60989,999,9327,.47493085E-4,.81E-6,0
IONOSFERA-M 1,2024-199A,2026-06-19T05:35:52.243584,14.22754719,.00019981,98.7171,43.3839,107.4503,252.6894,0,U,61735,999,12799,.39876555E-4,.45E-6,0
