
ALOS-4 (DAICHI-4)
1 60182U 24123A   26170.25513998  .00001101  00000+0  15425-3 0  9999
2 60182  97.9247 267.4000 0001624  97.0738 263.0658 14.79471668106182

CARTOSAT-3
1 44804U 19081A   26170.33079619  .00000784  00000+0  40305-4 0  9997
2 44804  97.4297 232.1641 0013414 141.5605 218.6588 15.19289241363792

CAS500-1
1 47932U 21022A   26170.30110265  .00005018  00000+0  23506-3 0  9998
2 47932  97.3895  65.5117 0003313 289.7267  70.3611 15.20152967291080

CSG-1
1 44873U 19092A   26170.27919735  .00000297  00000+0  43850-4 0  9997
2 44873  97.8888 353.8513 0001459  89.5121 270.6260 14.82154645351786

CSG-2
1 51444U 22008A   26170.24542063 -.00000366  00000+0 -39449-4 0  9991
2 51444  97.8884 353.8125 0001450  87.3415 272.7964 14.82154934236895

GAOFEN-10R
1 44622U 19066A   26170.31281243  .00000908  00000+0  11823-3 0  9994
2 44622  98.0503 123.9076 0006788 121.8921 238.2954 14.83064783362699

GAOFEN-11 01
1 43585U 18063A   26170.29651250  .00011613  00000+0  17249-3 0  9996
2 43585  97.1288 237.1703 0002744 348.0389  12.0801 15.55338675440678

GAOFEN-12 01
1 44819U 19082A   26170.31011674  .00000294  00000+0  45104-4 0  9997
2 44819  97.8100 176.6336 0002215  68.0474 292.0973 14.80460059354409

GAOFEN-12 02
1 48079U 21026A   26170.25380758  .00000267  00000+0  42044-4 0  9995
2 48079  97.9921 168.4260 0003827 213.3791 146.7180 14.80297469282065

GAOFEN-12 03
1 52912U 22069A   26170.28409160  .00000267  00000+0  42023-4 0  9993
2 52912  97.8275  58.1015 0002124 100.2635 259.8817 14.80036319214928

GAOFEN-12 04
1 57654U 23123A   26170.30049134  .00000783  00000+0  10980-3 0  9996
2 57654  97.9121  88.2880 0001777  82.2872 277.8542 14.80232258152944

HYSIS
1 43719U 18096A   26170.30926766  .00000149  00000+0  27433-4 0  9999
2 43719  97.9836 237.0410 0001771  97.5890 262.5522 14.78619131407735

ICESAT-2
1 43613U 18070A   26170.31582716  .00007728  00000+0  28017-3 0  9996
2 43613  92.0083 291.5541 0006092 102.3078 257.8854 15.28314560432784

IONOSFERA-M 1
1 61735U 24199A   26170.23324356  .00000045  00000+0  39877-4 0  9997
2 61735  98.7171  43.3839 0001998 107.4503 252.6894 14.22754719127990

KAZSTSAT
1 43783U 18099AB  26170.09893275  .00001394  00000+0  11690-3 0  9997
2 43783  97.4271 201.9402 0008576  64.7111 295.5001 14.99871564411597

LANDSAT 9
1 49260U 21088A   26170.18795718  .00000255  00000+0  66629-4 0  9996
2 49260  98.2280 240.3412 0001320  85.7063 274.4286 14.57098314251297

LEGION 1
1 59625U 24081A   26170.27225015  .00002745  00000+0  14355-3 0  9990
2 59625  97.5016 248.1071 0009315  10.6357 349.5072 15.16679012117850

LEGION 2
1 59626U 24081B   26170.23628243  .00003125  00000+0  16295-3 0  9995
2 59626  97.5016 248.1689 0010582 336.2019  23.8723 15.16657276117859

LEGION 3
1 60452U 24146A   26170.04182514  .00003240  00000+0  17903-3 0  9996
2 60452  45.0026  20.6083 0007861 180.8869 179.1997 15.16048922102304

LEGION 4
1 60453U 24146B   26170.24260860  .00003679  00000+0  20123-3 0  9994
2 60453  45.0014 111.4417 0013592 319.3290  40.6573 15.16045510101184

NEMO-HD
1 46277U 20061F   26170.33240793  .00009016  00000+0  19548-3 0  9997
2 46277  97.1915 232.2638 0002176  79.4389 280.7106 15.44631141322317

PARS 1
1 59065U 24039Q   26170.25660285  .00009326  00000+0  19421-3 0  9992
2 59065  97.4827 151.2415 0011543 105.6270 254.6254 15.45760222128966

PLEIADES NEO 3
1 48268U 21034A   26170.27911935  .00000241  00000+0  37223-4 0  9998
2 48268  97.8930 245.0157 0001332  89.0632 271.0733 14.81675145277963

PLEIADES NEO 4
1 49070U 21073E   26170.24533515  .00001180  00000+0  15654-3 0  9990
2 49070  97.8934 244.9787 0001385  89.1880 270.9492 14.81681588261679

RESURS-P 4
1 59371U 24061A   26170.28779275  .00002521  00000+0  83706-4 0  9998
2 59371  97.2753 118.1499 0002337 124.7400 235.4063 15.32141386124088

SAUDISAT 5A
1 43831U 18102A   26170.32582558  .00004534  00000+0  16806-3 0  9994
2 43831  97.3063 231.8657 0011140 122.5266 237.7052 15.28066671416001

SAUDISAT 5B
1 43833U 18102C   26170.34431113  .00004315  00000+0  15880-3 0  9996
2 43833  97.3173 234.9574 0011811 124.6455 235.5900 15.28322543416129

SENTINEL-2C
1 60989U 24157A   26170.20051700  .00000081  00000+0  47493-4 0  9991
2 60989  98.5692 244.9541 0000990  82.8558 277.2737 14.30818330 93273

SENTINEL-6A
1 46984U 20086A   26170.27160970 -.00000054  00000+0  29055-4 0  9999
2 46984  66.0397 130.7229 0007928 270.2198  89.7908 12.80929970260593

SWOT
1 54754U 22173A   26170.27479094  .00000041  00000+0  29273-4 0  9999
2 54754  77.6106  32.4920 0000269  89.3489 270.7694 14.00169853179449
